[{"OBJECT_NAME":"JILIN-1 KUANFU 01","OBJECT_ID":"2020-003A","EPOCH":"2026-03-09T21:54:33.175008","MEAN_MOTION":15.10079256,"ECCENTRICITY":0.00082994,"INCLINATION":97.5094,"RA_OF_ASC_NODE":144.8213,"ARG_OF_PERICENTER":285.3859,"MEAN_ANOMALY":74.6453,"EPHEMERIS_TYPE":0,"CLASSIFICATION_TYPE":"U","NORAD_CAT_ID":45016,"ELEMENT_SET_NO":999,"REV_AT_EPOCH":34034,"BSTAR":0.00024799476,"MEAN_MOTION_DOT":3.977e-5,"MEAN_MOTION_DDOT":0},{"OBJECT_NAME":"STARLINK-2430","OBJECT_ID":"2021-027J","EPOCH":"2026-03-10T00:00:02.999808","MEAN_MOTION":15.1045293,"ECCENTRICITY":0.00018604,"INCLINATION":53.0671,"RA_OF_ASC_NODE":150.2034,"ARG_OF_PERICENTER":56.1684,"MEAN_ANOMALY":30.6201,"EPHEMERIS_TYPE":0,"CLASSIFICATION_TYPE":"U","NORAD_CAT_ID":48100,"ELEMENT_SET_NO":999,"REV_AT_EPOCH":580,"BSTAR":0.0050421315,"MEAN_MOTION_DOT":0.00084603,"MEAN_MOTION_DDOT":0}]
